STARLINK-37150
1 68315U 26057X   26090.50002315 -.01508059  68032-3 -34931-2 0  9990
2 68315  97.2756 213.8740 0001423  75.3830  71.3696 15.97245182  2763
STARLINK-37154
1 68316U 26057Y   26090.58335648 -.01461515  64213-3 -33784-2 0  9994
2 68316  97.2749 213.9690 0001350  74.1422 203.6921 15.97276477  2687
